HAWK-9A                 
1 59446U 24066E   26068.43100697  .00002638  00000+0  23459-3 0  9992
2 59446  45.6088  72.7153 0003627 244.6286 115.4219 14.98777479104861
STARLINK-36175          
1 67012U 25293K   26068.49051163  .00003029  00000+0  26154-3 0  9992
2 67012  70.0001  95.1336 0002879 267.6800  92.4030 14.98333042 14851
